ORBCOMM FM20 [+]        
1 25416U 98046D   24100.19512176  .00001048  00000+0  41319-3 0  9997
2 25416  44.9950  73.1294 0001950 294.8506  65.2138 14.35056856341877
ORBCOMM FM16 [-]        
1 25417U 98046E   24100.93988220  .00001630  00000+0  60428-3 0  9996
2 25417  44.9950  65.6085 0005390 289.7612  70.2653 14.35984956341919
ORBCOMM FM15 [-]        
1 25418U 98046F   24100.96027481  .00001408  00000+0  53144-3 0  9993
2 25418  44.9982  69.5004 0005039 291.5300  68.5010 14.35718094341920
ORBCOMM FM14 [-]        
1 25419U 98046G   24100.67339398  .00001712  00000+0  63353-3 0  9996
2 25419  44.9972  70.0109 0003771 286.2330 243.9113 14.35870869341830
ORBCOMM FM13 [+]        
1 25420U 98046H   24100.87992132  .00001327  00000+0  50893-3 0  9998
2 25420  44.9984  73.7383 0005936 274.0913  85.9255 14.35183213340937
ORBCOMM FM21 [-]        
1 25475U 98053A   24101.52544847  .00000869  00000+0  35039-3 0  9990
2 25475  45.0078 154.9712 0002655 251.1135 108.9425 14.35145279335375
ORBCOMM FM22 [-]        
1 25476U 98053B   24101.44422995  .00001224  00000+0  46910-3 0  9997
2 25476  45.0073 152.7605 0003976 236.0703 123.9766 14.35644330335386
ORBCOMM FM23 [-]        
1 25477U 98053C   24100.85841307  .00000954  00000+0  37972-3 0  9991
2 25477  45.0078 160.5545 0003355 234.7777 125.2757 14.35179829335098
